STARLINK-30863          
1 59027U 24038E   26068.30243000 -.00000680  00000+0 -15180-4 0  9998
2 59027  43.0016  29.6402 0001015 236.7513 123.3241 15.27577328114588
TRANSPORTER-12 OBJECT AZ
1 62656U 25009AZ  26068.71026235  .00016057  00000+0  54903-3 0  9991
2 62656  97.3981 151.9913 0000987  45.3581 314.7740 15.30349724 63792
