[{"OBJECT_NAME":"STARLINK-30863","OBJECT_ID":"2024-038E","EPOCH":"2026-03-09T07:15:29.952000","MEAN_MOTION":15.27577328,"ECCENTRICITY":0.00010151,"INCLINATION":43.0016,"RA_OF_ASC_NODE":29.6402,"ARG_OF_PERICENTER":236.7513,"MEAN_ANOMALY":123.3241,"EPHEMERIS_TYPE":0,"CLASSIFICATION_TYPE":"U","NORAD_CAT_ID":59027,"ELEMENT_SET_NO":999,"REV_AT_EPOCH":11458,"BSTAR":-1.5180457e-5,"MEAN_MOTION_DOT":-6.8e-6,"MEAN_MOTION_DDOT":0},{"OBJECT_NAME":"TRANSPORTER-12 OBJECT AZ","OBJECT_ID":"2025-009AZ","EPOCH":"2026-03-09T17:02:46.667040","MEAN_MOTION":15.30349724,"ECCENTRICITY":9.87e-5,"INCLINATION":97.3981,"RA_OF_ASC_NODE":151.9913,"ARG_OF_PERICENTER":45.3581,"MEAN_ANOMALY":314.774,"EPHEMERIS_TYPE":0,"CLASSIFICATION_TYPE":"U","NORAD_CAT_ID":62656,"ELEMENT_SET_NO":999,"REV_AT_EPOCH":6379,"BSTAR":0.00054902545,"MEAN_MOTION_DOT":0.00016057,"MEAN_MOTION_DDOT":0}]
